{"type": "FeatureCollection", "features": [ {"type": "Feature", "properties": {"norad_id": 40315, "name": "COSMOS 2501 (702K)", "group": "gnss", "lat": -63.274680676086426, "lon": 97.12185348548967, "alt_km": 19111.966711046978, "timestamp": "2025-12-19T10:50:01.443183+00:00", "meta": {"OBJECT_NAME": "COSMOS 2501 (702K)", "OBJECT_ID": "2014-075A", "EPOCH": "2025-12-17T16:44:15.819648", "MEAN_MOTION": 2.1310145, "ECCENTRICITY": 0.0020092, "INCLINATION": 63.6148, "RA_OF_ASC_NODE": 196.6532, "ARG_OF_PERICENTER": 204.0953, "MEAN_ANOMALY": 155.89, "EPHEMERIS_TYPE": 0, "CLASSIFICATION_TYPE": "U", "NORAD_CAT_ID": 40315, "ELEMENT_SET_NO": 999, "REV_AT_EPOCH": 8598, "BSTAR": 0, "MEAN_MOTION_DOT": 1.11e-06, "MEAN_MOTION_DDOT": 0}, "tle": {"line1": "1 40315U 14075A   25351.69740532  .00000111  00000+0  00000+0 0  9993", "line2": "2 40315  63.6148 196.6532 0020092 204.0953 155.8900  2.13101450 85986"}}, "geometry": {"type": "Point", "coordinates": [97.12185348548967, -63.274680676086426]}}, {"type": "Feature", "properties": {"norad_id": 40534, "name": "GPS BIIF-9  (PRN 26)", "group": "gnss", "lat": -52.93596891430054, "lon": 129.2783280448015, "alt_km": 20345.762698115966, "timestamp": "2025-12-19T10:50:01.443195+00:00", "meta": {"OBJECT_NAME": "GPS BIIF-9  (PRN 26)", "OBJECT_ID": "2015-013A", "EPOCH": "2025-12-18T13:43:57.304128", "MEAN_MOTION": 2.00562317, "ECCENTRICITY": 0.01072792, "INCLINATION": 53.1969, "RA_OF_ASC_NODE": 211.6486, "ARG_OF_PERICENTER": 38.6162, "MEAN_ANOMALY": 322.2412, "EPHEMERIS_TYPE": 0, "CLASSIFICATION_TYPE": "U", "NORAD_CAT_ID": 40534, "ELEMENT_SET_NO": 999, "REV_AT_EPOCH": 7820, "BSTAR": 0, "MEAN_MOTION_DOT": 8.6e-07, "MEAN_MOTION_DDOT": 0}, "tle": {"line1": "1 40534U 15013A   25352.57219102  .00000086  00000+0  00000+0 0  9992", "line2": "2 40534  53.1969 211.6486 0107279  38.6162 322.2412  2.00562317 78200"}}, "geometry": {"type": "Point", "coordinates": [129.2783280448015, -52.93596891430054]}}, {"type": "Feature", "properties": {"norad_id": 40544, "name": "GSAT0203 (GALILEO 7)", "group": "gnss", "lat": -13.583115244843173, "lon": 175.57872486437887, "alt_km": 23219.696271708017, "timestamp": "2025-12-19T10:50:01.443206+00:00", "meta": {"OBJECT_NAME": "GSAT0203 (GALILEO 7)", "OBJECT_ID": "2015-017A", "EPOCH": "2025-12-17T08:55:11.074944", "MEAN_MOTION": 1.7047611, "ECCENTRICITY": 0.00064774, "INCLINATION": 56.8452, "RA_OF_ASC_NODE": 346.5536, "ARG_OF_PERICENTER": 273.4606, "MEAN_ANOMALY": 86.4809, "EPHEMERIS_TYPE": 0, "CLASSIFICATION_TYPE": "U", "NORAD_CAT_ID": 40544, "ELEMENT_SET_NO": 999, "REV_AT_EPOCH": 6610, "BSTAR": 0, "MEAN_MOTION_DOT": -7.9e-07, "MEAN_MOTION_DDOT": 0}, "tle": {"line1": "1 40544U 15017A   25351.37165596 -.00000079  00000+0  00000+0 0  9994", "line2": "2 40544  56.8452 346.5536 0006477 273.4606  86.4809  1.70476110 66108"}}, "geometry": {"type": "Point", "coordinates": [175.57872486437887, -13.583115244843173]}}, {"type": "Feature", "properties": {"norad_id": 40545, "name": "GSAT0204 (GALILEO 8)", "group": "gnss", "lat": 32.23159651345338, "lon": 10.844429898713889, "alt_km": 23230.77522755629, "timestamp": "2025-12-19T10:50:01.443218+00:00", "meta": {"OBJECT_NAME": "GSAT0204 (GALILEO 8)", "OBJECT_ID": "2015-017B", "EPOCH": "2025-12-18T05:07:45.807168", "MEAN_MOTION": 1.70475664, "ECCENTRICITY": 0.00061628, "INCLINATION": 56.8529, "RA_OF_ASC_NODE": 346.5485, "ARG_OF_PERICENTER": 265.6138, "MEAN_ANOMALY": 94.3298, "EPHEMERIS_TYPE": 0, "CLASSIFICATION_TYPE": "U", "NORAD_CAT_ID": 40545, "ELEMENT_SET_NO": 999, "REV_AT_EPOCH": 2916, "BSTAR": 0, "MEAN_MOTION_DOT": -7.7e-07, "MEAN_MOTION_DDOT": 0}, "tle": {"line1": "1 40545U 15017B   25352.21372462 -.00000077  00000+0  00000+0 0  9999", "line2": "2 40545  56.8529 346.5485 0006162 265.6138  94.3298  1.70475664 29169"}}, "geometry": {"type": "Point", "coordinates": [10.844429898713889, 32.23159651345338]}}, {"type": "Feature", "properties": {"norad_id": 40549, "name": "BEIDOU-3S IGSO-1S (C31)", "group": "gnss", "lat": 34.08760554601837, "lon": -27.20076133243318, "alt_km": 35903.839448196966, "timestamp": "2025-12-19T10:50:01.443230+00:00", "meta": {"OBJECT_NAME": "BEIDOU-3S IGSO-1S (C31)", "OBJECT_ID": "2015-019A", "EPOCH": "2025-12-18T19:55:38.829792", "MEAN_MOTION": 1.00292047, "ECCENTRICITY": 0.0036331, "INCLINATION": 49.5404, "RA_OF_ASC_NODE": 297.6395, "ARG_OF_PERICENTER": 194.0028, "MEAN_ANOMALY": 349.3621, "EPHEMERIS_TYPE": 0, "CLASSIFICATION_TYPE": "U", "NORAD_CAT_ID": 40549, "ELEMENT_SET_NO": 999, "REV_AT_EPOCH": 3926, "BSTAR": 0, "MEAN_MOTION_DOT": -1.83e-06, "MEAN_MOTION_DDOT": 0}, "tle": {"line1": "1 40549U 15019A   25352.83031053 -.00000183  00000+0  00000+0 0  9999", "line2": "2 40549  49.5404 297.6395 0036331 194.0028 349.3621  1.00292047 39264"}}, "geometry": {"type": "Point", "coordinates": [-27.20076133243318, 34.08760554601837]}}, {"type": "Feature", "properties": {"norad_id": 40730, "name": "GPS BIIF-10 (PRN 08)", "group": "gnss", "lat": 16.11650555327927, "lon": 82.43348514046467, "alt_km": 20380.21006161682, "timestamp": "2025-12-19T10:50:01.443241+00:00", "meta": {"OBJECT_NAME": "GPS BIIF-10 (PRN 08)", "OBJECT_ID": "2015-033A", "EPOCH": "2025-12-18T05:38:11.905728", "MEAN_MOTION": 2.0056541, "ECCENTRICITY": 0.0111299, "INCLINATION": 54.1258, "RA_OF_ASC_NODE": 274.5468, "ARG_OF_PERICENTER": 26.9435, "MEAN_ANOMALY": 333.656, "EPHEMERIS_TYPE": 0, "CLASSIFICATION_TYPE": "U", "NORAD_CAT_ID": 40730, "ELEMENT_SET_NO": 999, "REV_AT_EPOCH": 7636, "BSTAR": 0, "MEAN_MOTION_DOT": -3.6e-07, "MEAN_MOTION_DDOT": 0}, "tle": {"line1": "1 40730U 15033A   25352.23486002 -.00000036  00000+0  00000+0 0  9996", "line2": "2 40730  54.1258 274.5468 0111299  26.9435 333.6560  2.00565410 76360"}}, "geometry": {"type": "Point", "coordinates": [82.43348514046467, 16.11650555327927]}}, {"type": "Feature", "properties": {"norad_id": 40748, "name": "BEIDOU-3S M2S (C58)", "group": "gnss", "lat": 3.6190190332121253, "lon": -49.25682327569563, "alt_km": 21531.824034533565, "timestamp": "2025-12-19T10:50:01.443253+00:00", "meta": {"OBJECT_NAME": "BEIDOU-3S M2S (C58)", "OBJECT_ID": "2015-037A", "EPOCH": "2025-12-11T22:15:26.437248", "MEAN_MOTION": 1.8622897, "ECCENTRICITY": 0.00123447, "INCLINATION": 55.0397, "RA_OF_ASC_NODE": 308.4912, "ARG_OF_PERICENTER": 267.8245, "MEAN_ANOMALY": 92.025, "EPHEMERIS_TYPE": 0, "CLASSIFICATION_TYPE": "U", "NORAD_CAT_ID": 40748, "ELEMENT_SET_NO": 999, "REV_AT_EPOCH": 7063, "BSTAR": 0, "MEAN_MOTION_DOT": -8.9e-07, "MEAN_MOTION_DDOT": 0}, "tle": {"line1": "1 40748U 15037A   25345.92738932 -.00000089  00000+0  00000+0 0  9997", "line2": "2 40748  55.0397 308.4912 0012344 267.8245  92.0250  1.86228970 70636"}}, "geometry": {"type": "Point", "coordinates": [-49.25682327569563, 3.6190190332121253]}}, {"type": "Feature", "properties": {"norad_id": 40749, "name": "BEIDOU-3S M1S (C57)", "group": "gnss", "lat": -24.749825977433964, "lon": 147.00465166547215, "alt_km": 21537.631173157857, "timestamp": "2025-12-19T10:50:01.443264+00:00", "meta": {"OBJECT_NAME": "BEIDOU-3S M1S (C57)", "OBJECT_ID": "2015-037B", "EPOCH": "2025-12-18T01:31:18.410592", "MEAN_MOTION": 1.86254045, "ECCENTRICITY": 0.00035849, "INCLINATION": 55.0306, "RA_OF_ASC_NODE": 308.2705, "ARG_OF_PERICENTER": 0.3009, "MEAN_ANOMALY": 359.6859, "EPHEMERIS_TYPE": 0, "CLASSIFICATION_TYPE": "U", "NORAD_CAT_ID": 40749, "ELEMENT_SET_NO": 999, "REV_AT_EPOCH": 7075, "BSTAR": 0, "MEAN_MOTION_DOT": -8.6e-07, "MEAN_MOTION_DDOT": 0}, "tle": {"line1": "1 40749U 15037B   25352.06340753 -.00000086  00000+0  00000+0 0  9998", "line2": "2 40749  55.0306 308.2705 0003584   0.3009 359.6859  1.86254045 70751"}}, "geometry": {"type": "Point", "coordinates": [147.00465166547215, -24.749825977433964]}}, {"type": "Feature", "properties": {"norad_id": 40889, "name": "GSAT0205 (GALILEO 9)", "group": "gnss", "lat": -1.444286292290515, "lon": 47.59791220140905, "alt_km": 23236.73104890753, "timestamp": "2025-12-19T10:50:01.443277+00:00", "meta": {"OBJECT_NAME": "GSAT0205 (GALILEO 9)", "OBJECT_ID": "2015-045A", "EPOCH": "2025-12-17T23:34:28.865856", "MEAN_MOTION": 1.70473246, "ECCENTRICITY": 0.00059886, "INCLINATION": 55.0015, "RA_OF_ASC_NODE": 226.6133, "ARG_OF_PERICENTER": 39.6119, "MEAN_ANOMALY": 320.5359, "EPHEMERIS_TYPE": 0, "CLASSIFICATION_TYPE": "U", "NORAD_CAT_ID": 40889, "ELEMENT_SET_NO": 999, "REV_AT_EPOCH": 6392, "BSTAR": 0, "MEAN_MOTION_DOT": 5.9e-07, "MEAN_MOTION_DDOT": 0}, "tle": {"line1": "1 40889U 15045A   25351.98227854  .00000059  00000+0  00000+0 0  9997", "line2": "2 40889  55.0015 226.6133 0005988  39.6119 320.5359  1.70473246 63920"}}, "geometry": {"type": "Point", "coordinates": [47.59791220140905, -1.444286292290515]}}, {"type": "Feature", "properties": {"norad_id": 40890, "name": "GSAT0206 (GALILEO 10)", "group": "gnss", "lat": 36.284683989201575, "lon": -102.4849958606231, "alt_km": 23206.140784690015, "timestamp": "2025-12-19T10:50:01.443289+00:00", "meta": {"OBJECT_NAME": "GSAT0206 (GALILEO 10)", "OBJECT_ID": "2015-045B", "EPOCH": "2025-12-14T16:24:04.185792", "MEAN_MOTION": 1.70473242, "ECCENTRICITY": 0.00039786, "INCLINATION": 55.0018, "RA_OF_ASC_NODE": 226.6995, "ARG_OF_PERICENTER": 38.8814, "MEAN_ANOMALY": 321.2332, "EPHEMERIS_TYPE": 0, "CLASSIFICATION_TYPE": "U", "NORAD_CAT_ID": 40890, "ELEMENT_SET_NO": 999, "REV_AT_EPOCH": 6389, "BSTAR": 0, "MEAN_MOTION_DOT": 3.4e-07, "MEAN_MOTION_DDOT": 0}, "tle": {"line1": "1 40890U 15045B   25348.68338178  .00000034  00000+0  00000+0 0  9997", "line2": "2 40890  55.0018 226.6995 0003978  38.8814 321.2332  1.70473242 63892"}}, "geometry": {"type": "Point", "coordinates": [-102.4849958606231, 36.284683989201575]}}]}